STARLINK-2495_new
1 18325C 21036BB  21326.18228479 -.00020609  00000-0 -13808-2 0  3264
2 18325  53.0554 302.9292 0001770  55.9717 247.9305 15.06419830    10
STARLINK-2495_old
1 28325C 21036BB  21325.14025913 -.00000984  00000-0 -65954-4 0  3251
2 28325  53.0555 307.6069 0001721  56.2854 353.5375 15.06400136    17
